#dP2020  5 14  0  0  0.00000000      97 __u+U IGS14 FIT  IAC
## 2105 345600.00000000   900.00000000 58983 0.0000000000000
+  124   C01C02C03C04C05C06C07C08C09C10C11C12C13C14C16C19C20
+        C21C22C23C24C25C26C27C28C29C30C32C33C34C35C36C37C38
+        C39C40C43C44C45C46C60E01E02E03E04E05E07E08E09E11E12
+        E13E14E15E18E19E21E24E25E26E27E30E31E33E36G01G02G03
+        G04G05G06G07G08G09G10G11G12G13G14G15G16G17G18G19G20
+        G21G22G23G24G25G26G27G28G29G30G31G32J01J02J03J07R01
+        R02R03R04R05R07R08R09R11R12R13R14R15R16R17R18R19R20
+        R21R22R23R24R26  0  0  0  0  0  0  0  0  0  0  0  0
++         0  0  0  0  0  0  0  0  0  0  0  0  0  0  0  0  0
++         0  0  0  0  0  0  0  0  0  0  0  0  0  0  0  0  0
++         0  0  0  0  0  0  0  0  0  0  0  0  0  0  0  0  0
++         0  0  0  0  0  0  0  0  0  0  0  0  0  0  0  0  0
++         0  0  0  0  0  0  0  0  0  0  0  0  0  0  0  0  0
++         0  0  0  0  0  0  0  0  0  0  0  0  0  0  0  0  0
++         0  0  0  0  0  0  0  0  0  0  0  0  0  0  0  0  0
++         0  0  0  0  0  0  0  0  0  0  0  0  0  0  0  0  0
%c M  cc GPS ccc cccc cccc cccc cccc ccccc ccccc ccccc ccccc
%c cc cc ccc ccc cccc cccc cccc cccc ccccc ccccc ccccc ccccc
%f  1.2500000  1.025000000  0.00000000000  0.000000000000000
%f  0.0000000  0.000000000  0.00000000000  0.000000000000000
%i    0    0    0    0      0      0      0      0         0
%i    0    0    0    0      0      0      0      0         0
/* INFORMATION & ANALYSIS CENTER (IAC)            FINAL DATA
/* S/V CLOCKS ARE ALIGNED TO GNSS TIME                      
/* G:C1WC2W R:C1PC2P E:C1XC5X C:C2IC6I J:C1CC2S             
/* PCV:IGS14_2101 OL/AL:FES2004  NONE     YN ORB:CoN CLK:CoN
*  2020 05 14 10 30  0.00000000
PC01 -34337.249917  24427.893560   -672.983235 999999.999999
PC02   4371.073929  41937.447083    684.608060    351.495837
PC03 -14802.782574  39451.532734   1023.671961 999999.999999
PC04 -39617.093547  14407.539520    300.242221   -218.609586
PC05  21885.818912  36038.240480    411.527209   -279.981966
PC06 -25581.794507  27924.358449 -18581.654489    732.131132
PC07 -12576.585245  36170.200866 -16891.341362    -31.885645
PC08  -9860.334692  19279.374259  36279.088421   -252.045618
PC09  -9546.349965  27887.794808 -30024.830475    539.541577
PC10  -1563.334142  41737.032056  -3592.301663   -935.952187
PC11 -11612.336634 -12441.690350 -22051.361658   -363.862155
PC12   9617.769486 -15968.388710 -20744.874765    372.578576
PC13   4924.868173  27151.255632  32049.159556    435.068461
PC14  -5497.524998 -21682.290421  16757.651834    405.472172
PC16 -22073.417535  28640.412705 -21763.695812   -645.294990
PC19  11471.218036  13511.222751 -21517.171259    412.073846
PC20   -768.431085  25989.816101 -10065.115726   -877.221482
PC21  13025.147958 -23432.502717  -7767.872911   -399.408075
PC22  17330.474787  -7101.065268 -20686.066262   -807.454682
PC23 -20538.578516  -3120.739787 -18632.039599   -877.215118
PC24  -7988.914510 -23162.845802  13333.002290   -822.787778
PC25 -20950.916307 -17941.393810  -4179.413136   -616.500128
PC26   7877.511719 -14737.810672  22339.977103    680.045858
PC27 -18895.992592  14212.444340  14821.735481    329.780348
PC28 -27528.703188   4131.456428  -1938.038955    320.884282
PC29  20371.918448   7570.774304  17493.087404    228.304975
PC30   1027.742536  16006.760210  22832.817514    316.696778
PC32 -12877.162131  23494.405516   7805.548805   -893.867660
PC33 -11543.114122 -13557.270484  21506.072563   -837.922276
PC34  -1580.060151 -15947.123760 -22852.647904   -717.939848
PC35  27363.772855  -4945.827167   2096.599186   -845.484270
PC36  20461.932781  18551.134416   3984.258735   -829.903409
PC37  -8738.609134  14066.560169 -22444.839242   -842.884784
PC38  -5212.658745  24275.801398  34107.270409     77.803307
PC39 -17215.505070  30159.105091 -23974.331591     15.793862
PC40  -7483.963092  40740.916163  -7320.952823     43.286408
PC43 -20151.220235  -7952.313805 -17611.273876 999999.999999
PC44  18502.319103 -14848.114563 -14672.323357   -220.907268
PC45  20493.832836   3144.607589  18688.403812    131.464434
PC46   8551.521839  23177.939383 -12996.401989    836.160912
PC60   7226.354277  41508.366611   1353.215043     -0.335539
PE01  13434.024730  25089.913915   8134.403565   -856.232093
PE02 -13480.461705 -25030.495685  -8226.201861    133.243357
PE03  -8711.825726 -15406.836988  23734.403009   -298.525468
PE04  21678.691113  -2557.361292 -19980.736747   -525.124705
PE05   9505.365152 -24519.885161  13599.200663   -380.356313
PE07 -22051.554359  19237.656778   4425.900083   -381.606333
PE08 -21648.229611   2956.760241  19972.328083   6178.484130
PE09  21869.250622 -19485.450710  -4320.943215   6061.697736
PE11  21616.336550  -7883.015547 -18615.126283   2826.248136
PE12  29053.614526   5467.976061  -1182.787102   5806.109782
PE13 -21794.092979   7751.429685  18479.438042    400.831769
PE14 -26128.035492   1371.641336 -13602.323738  -1013.387053
PE15 -29109.457137  -5217.370370   1392.437985    867.114080
PE18  24403.708425 -14018.852184  -1532.558194  -1112.353088
PE19   6771.074145  16842.540140 -23369.641844  -2074.990612
PE21   1324.546121  27657.854157 -10465.768399   -598.849119
PE24  12038.946651 -13818.609798  23225.263065   5456.477939
PE25  -1237.001870 -27620.371994  10574.757017   -510.565901
PE26  -1353.687994  16418.174251  24594.696269   3191.025109
PE27 -11805.403397  14100.695738 -23195.243915    220.336659
PE30 -17964.971561  -8098.013611 -22095.466341   3908.444598
PE31  17948.606850   7675.582735  22253.608769   -472.548355
PE33  19317.708395  15139.722081  16541.688762   -467.305230
PE36   1666.514931 -16180.162998 -24726.942036    560.355681
PG01 -21550.407059 -15223.479753  -4580.032650   -379.542214
PG02   3283.187778  17279.620107  20558.715138   -455.654939
PG03 -12458.991144 -15882.255892  17255.572683   -175.312271
PG04 -17723.686016  -5216.258373  19105.359557    -89.157686
PG05   1855.184352  26385.847752   -239.955329    -12.647275
PG06  -8594.284152  12174.229844  22040.034471   -271.267023
PG07 -23689.957859  -3562.492712 -11676.199409   -280.809524
PG08  -7376.480788 -13094.833797 -21878.271620    -33.949937
PG09 -23314.911002   5193.924601  11586.388274   -217.025568
PG10  11846.038456 -15434.437547 -17883.298161   -340.542919
PG11 -15919.947700 -13402.771612 -16825.623912   -277.705188
PG12  10590.837983  17588.199723  16703.157934    118.084056
PG13  -1779.803669  16553.679521 -20790.803154      9.887210
PG14  15292.394108 -17797.380371  12607.019595    -13.075832
PG15   9848.732530  12697.350370 -21458.819344   -231.309066
PG16    -91.260022 -26229.852750  -2334.130870   -158.027709
PG17 -21533.792799  15003.356171   4330.947095    264.510472
PG18  23481.649827   3854.780970 -11851.727395    189.217147
PG19 -17460.781938  16580.764885  10887.684170   -158.980313
PG20  15457.819380  -3509.899941 -21383.556111    527.697936
PG21  23002.873447    830.351573 -12279.039457     -1.571622
PG22 -10195.614278 -22557.796618  10022.546461   -782.341368
PG23 -23731.369903   5684.443103  11372.851960   -114.311337
PG24  21237.183120  15003.251569  -6488.841185    -12.998942
PG25  14620.362238   7136.171756  20805.048232      3.971193
PG26   5475.701679 -23939.247390   9791.900530    206.156553
PG27   4080.436561 -17829.855488 -19271.412965   -293.334649
PG28 -12066.089226  16573.471132 -16384.845201    717.527323
PG29  22362.572399  -1149.175316  14257.338142   -104.039048
PG30 -17526.189948   5979.527139 -19074.916721   -219.806453
PG31   7871.717363 -13072.001328  21698.977373    -42.294623
PG32  20294.864102 -16460.654758   4376.050635    280.198669
PJ01 -31009.502097  26537.823430  15536.161550   -304.708634
PJ02 -18834.468205  23241.265089 -25174.920020     -0.090168
PJ03 -30536.738422  27564.866706  14498.432156     -2.953549
PJ07 -25356.273018  33690.223332    -10.665435     -0.029585
PR01   9185.508157   6365.324559 -22920.998582     61.509031
PR02  15469.354023 -14114.002462 -14480.679550    426.599218
PR03  11042.291888 -22857.087853   2293.210159     14.979446
PR04    500.565667 -18458.957326  17629.667107     49.072097
PR05 -10335.149882  -3652.101601  23049.722021     50.439727
PR07 -10870.355346  22931.366465  -2737.570658    -36.497863
PR08   -513.700756  18519.986821 -17480.433471    -52.213145
PR09  -9562.453382   5855.504749 -22899.659635    132.501374
PR11  12077.008538  22213.915936  -3161.273390    -23.534106
PR12  16376.431968  14484.323432  13182.353649    130.640234
PR13  11452.976094  -2065.991097  22678.992988    -38.673812
PR14   -176.585226 -17325.773882  18735.578974     51.198120
PR15 -11550.469743 -22376.527526   4086.918056    106.482056
PR16 -16687.982444 -13589.939676 -13619.466871     -3.517000
PR17  11413.443310  -9710.595635 -20645.951325    324.687736
PR18  -7261.219229  -9905.042019 -22355.484332     35.293143
PR19 -21549.323577  -5560.112604 -12470.099264    -93.247499
PR20 -24376.799142   3057.621733   6959.582019   -411.663966
PR21 -10435.494935   9786.434564  21109.978307   -124.428008
PR22   9744.304625   9477.989802  21555.570990     -1.170574
PR23  24649.683765   2279.630188   6129.908942    305.406740
PR24  24078.340498  -3669.947576  -7576.113832     -1.634449
PR26 -25347.294628   1532.707881   2290.387054   -395.713508
EOF
